H1 CPF 01  gfz 2022 12 01 13  8352 tandemx   
H2 1003001  6202 36605    2022 12 01 12 59 42 2022 12 06 00 00 42   120 1 1  0 0 0
H9
10 0 59918  48942.000000  0    2316953.376   3543684.665   5423806.886
10 0 59918  49062.000000  0    2097343.666   2801479.006   5923051.672
10 0 59918  49182.000000  0    1827735.118   2014638.427   6318142.131
10 0 59918  49302.000000  0    1512192.720   1197753.056   6602168.925
10 0 59918  49422.000000  0    1155836.709    365845.285   6770170.436
10 0 59918  49542.000000  0     764758.653   -465906.082   6819213.208
10 0 59918  49662.000000  0     345917.108  -1282442.046   6748441.718
10 0 59918  49782.000000  0     -92986.495  -2069096.421   6559092.509
10 0 59918  49902.000000  0    -543649.573  -2811859.394   6254473.598
10 0 59918  50022.000000  0    -997324.337  -3497628.048   5839908.470
10 0 59918  50142.000000  0   -1444984.567  -4114438.109   5322647.452
10 0 59918  50262.000000  0   -1877503.655  -4651676.559   4711749.370
10 0 59918  50382.000000  0   -2285841.189  -5100272.144   4017930.261
10 0 59918  50502.000000  0   -2661232.919  -5452858.087   3253378.832
10 0 59918  50622.000000  0   -2995378.525  -5703900.531   2431541.864
10 0 59918  50742.000000  0   -3280623.325  -5849791.129   1566885.944
10 0 59918  50862.000000  0   -3510130.193  -5888902.470    674638.458
10 0 59918  50982.000000  0   -3678037.151  -5821603.786   -229487.355
10 0 59918  51102.000000  0   -3779596.551  -5650236.656  -1129577.535
10 0 59918  51222.000000  0   -3811291.990  -5379050.276  -2009806.915
10 0 59918  51342.000000  0   -3770929.923  -5014097.898  -2854725.562
10 0 59918  51462.000000  0   -3657703.574  -4563097.755  -3649535.654
10 0 59918  51582.000000  0   -3472227.681  -4035263.115  -4380352.286
10 0 59918  51702.000000  0   -3216544.613  -3441107.052  -5034443.637
10 0 59918  51822.000000  0   -2894102.232  -2792226.335  -5600447.075
10 0 59918  51942.000000  0   -2509704.651  -2101069.944  -6068557.529
10 0 59918  52062.000000  0   -2069437.114  -1380697.675  -6430687.299
10 0 59918  52182.000000  0   -1580565.980   -644532.686  -6680594.496
10 0 59918  52302.000000  0   -1051417.488     93886.231  -6813978.605
10 0 59918  52422.000000  0    -491237.813    821147.897  -6828545.631
10 0 59918  52542.000000  0      89965.413   1524205.994  -6724043.420
10 0 59918  52662.000000  0     681596.320   2190606.553  -6502265.785
10 0 59918  52782.000000  0    1272659.468   2808704.406  -6167027.391
10 0 59918  52902.000000  0    1851960.184   3367864.746  -5724104.794
10 0 59918  53022.000000  0    2408312.602   3858646.199  -5181146.351
10 0 59918  53142.000000  0    2930753.307   4272962.806  -4547551.756
10 0 59918  53262.000000  0    3408756.904   4604223.547  -3834320.692
10 0 59918  53382.000000  0    3832449.345   4847444.924  -3053871.244
10 0 59918  53502.000000  0    4192815.171   4999333.593  -2219829.888
10 0 59918  53622.000000  0    4481891.640   5058335.867  -1346796.093
10 0 59918  53742.000000  0    4692946.698   5024654.771   -450086.312
10 0 59918  53862.000000  0    4820635.311   4900230.362    454540.202
10 0 59918  53982.000000  0    4861127.677   4688684.337   1351165.008
10 0 59918  54102.000000  0    4812209.023   4395232.621   2223997.638
10 0 59918  54222.000000  0    4673348.536   4026565.262   3057663.325
10 0 59918  54342.000000  0    4445731.679   3590695.759   3837482.741
10 0 59918  54462.000000  0    4132256.857   3096785.344   4549735.730
10 0 59918  54582.000000  0    3737499.119   2554947.775   5181904.798
10 0 59918  54702.000000  0    3267638.516   1976037.856   5722896.399
10 0 59918  54822.000000  0    2730356.537   1371430.362   6163231.013
10 0 59918  54942.000000  0    2134705.690    752793.277   6495203.533
10 0 59918  55062.000000  0    1490953.018    131861.689   6713010.961
10 0 59918  55182.000000  0     810400.676   -479783.413   6812849.396
10 0 59918  55302.000000  0     105185.922  -1070931.431   6792977.270
10 0 59918  55422.000000  0    -611935.787  -1630947.422   6653743.084
10 0 59918  55542.000000  0   -1327821.349  -2149963.423   6397578.832
10 0 59918  55662.000000  0   -2029179.289  -2619052.025   6028958.571
10 0 59918  55782.000000  0   -2702814.391  -3030380.389   5554326.532
10 0 59918  55902.000000  0   -3335878.235  -3377344.964   4981992.852
10 0 59918  56022.000000  0   -3916119.444  -3654681.310   4321992.748
10 0 59918  56142.000000  0   -4432124.972  -3858546.679   3585913.891
10 0 59918  56262.000000  0   -4873549.336  -3986574.654   2786695.632
10 0 59918  56382.000000  0   -5231327.908  -4037900.983   1938402.389
10 0 59918  56502.000000  0   -5497868.488  -4013158.919   1055972.331
10 0 59918  56622.000000  0   -5667214.952  -3914442.810    154948.066
10 0 59918  56742.000000  0   -5735179.611  -3745241.807   -748805.043
10 0 59918  56862.000000  0   -5699440.499  -3510345.124  -1639387.851
10 0 59918  56982.000000  0   -5559599.347  -3215720.006  -2501156.781
10 0 59918  57102.000000  0   -5317200.215  -2868367.316  -3319004.490
10 0 59918  57222.000000  0   -4975709.684  -2476158.931  -4078627.801
10 0 59918  57342.000000  0   -4540459.663  -2047660.855  -4766777.215
10 0 59918  57462.000000  0   -4018554.480  -1591947.168  -5371484.089
10 0 59918  57582.000000  0   -3418745.103  -1118408.476  -5882261.608
10 0 59918  57702.000000  0   -2751274.154   -636559.502  -6290276.244
10 0 59918  57822.000000  0   -2027695.559   -155850.288  -6588489.087
10 0 59918  57942.000000  0   -1260671.593    314515.264  -6771765.489
10 0 59918  58062.000000  0    -463753.188    765750.322  -6836952.935
10 0 59918  58182.000000  0     348854.366   1189645.058  -6782929.224
10 0 59918  58302.000000  0    1162537.293   1578711.268  -6610620.180
10 0 59918  58422.000000  0    1962530.575   1926312.168  -6322987.826
10 0 59918  58542.000000  0    2734180.683   2226774.612  -5924984.716
10 0 59918  58662.000000  0    3463210.442   2475481.481  -5423476.734
10 0 59918  58782.000000  0    4135980.747   2668943.231  -4827135.809
10 0 59918  58902.000000  0    4739748.435   2804848.306  -4146302.135
10 0 59918  59022.000000  0    5262913.234   2882090.041  -3392814.387
10 0 59918  59142.000000  0    5695247.301   2900769.443  -2579811.773
10 0 59918  59262.000000  0    6028105.386   2862174.526  -1721510.518
10 0 59918  59382.000000  0    6254607.276   2768733.852   -832954.819
10 0 59918  59502.000000  0    6369787.948   2623946.400     70249.578
10 0 59918  59622.000000  0    6370710.861   2432288.007    972216.557
10 0 59918  59742.000000  0    6256540.546   2199097.305   1857065.612
10 0 59918  59862.000000  0    6028575.490   1930445.729   2709210.334
10 0 59918  59982.000000  0    5690236.048   1632991.475   3513642.186
10 0 59918  60102.000000  0    5247009.474   1313823.411   4256202.017
10 0 59918  60222.000000  0    4706352.541    980298.096   4923832.888
10 0 59918  60342.000000  0    4077558.061    639875.396   5504809.914
10 0 59918  60462.000000  0    3371585.490    299954.590   5988945.454
10 0 59918  60582.000000  0    2600860.018    -32283.261   6367762.165
10 0 59918  60702.000000  0    1779048.502   -350023.358   6634634.756
10 0 59918  60822.000000  0     920813.655   -646954.477   6784901.109
10 0 59918  60942.000000  0      41549.279   -917393.068   6815939.235
10 0 59918  61062.000000  0    -842896.358  -1156391.004   6727209.017
10 0 59918  61182.000000  0   -1716505.387  -1359826.210   6520260.180
10 0 59918  61302.000000  0   -2563378.796  -1524473.502   6198705.785
10 0 59918  61422.000000  0   -3368024.070  -1648054.936   5768164.370
10 0 59918  61542.000000  0   -4115642.025  -1729270.818   5236169.775
10 0 59918  61662.000000  0   -4792404.578  -1767810.171   4612044.713
10 0 59918  61782.000000  0   -5385717.728  -1764339.114   3906741.735
10 0 59918  61902.000000  0   -5884463.487  -1720467.110   3132653.486
10 0 59918  62022.000000  0   -6279216.506  -1638692.544   2303396.884
10 0 59918  62142.000000  0   -6562432.839  -1522329.547   1433572.977
10 0 59918  62262.000000  0   -6728602.811  -1375416.235    538503.278
10 0 59918  62382.000000  0   -6774362.478  -1202606.443   -366047.923
10 0 59918  62502.000000  0   -6698562.352  -1009048.196  -1264160.316
10 0 59918  62622.000000  0   -6502290.909   -800252.211  -2140046.638
10 0 59918  62742.000000  0   -6188853.514   -581954.275  -2978336.802
10 0 59918  62862.000000  0   -5763707.884   -359975.266  -3764353.153
10 0 59918  62982.000000  0   -5234356.486   -140080.337  -4484369.393
10 0 59918  63102.000000  0   -4610200.847     72157.718  -5125847.463
10 0 59918  63222.000000  0   -3902362.595    271487.415  -5677650.021
10 0 59918  63342.000000  0   -3123474.144    453097.013  -6130224.477
10 0 59918  63462.000000  0   -2287446.178    612720.359  -6475755.782
10 0 59918  63582.000000  0   -1409217.262    746728.158  -6708289.979
10 0 59918  63702.000000  0    -504487.605    852203.773  -6823826.453
10 0 59918  63822.000000  0     410556.381    927002.313  -6820377.678
10 0 59918  63942.000000  0    1319523.149    969791.506  -6698000.745
10 0 59918  64062.000000  0    2206103.660    980074.931  -6458798.753
10 0 59918  64182.000000  0    3054358.335    958197.047  -6106888.378
10 0 59918  64302.000000  0    3848999.480    905329.659  -5648335.521
10 0 59918  64422.000000  0    4575664.460    823439.502  -5091061.094
10 0 59918  64542.000000  0    5221177.941    715238.148  -4444716.252
10 0 59918  64662.000000  0    5773797.558    584114.846  -3720525.812
10 0 59918  64782.000000  0    6223436.571    434052.708  -2931102.260
10 0 59918  64902.000000  0    6561859.769    269530.564  -2090233.065
10 0 59918  65022.000000  0    6782848.260     95411.803  -1212642.188
10 0 59918  65142.000000  0    6882325.281    -83176.977   -313729.930
10 0 59918  65262.000000  0    6858440.900   -260974.128    590701.621
10 0 59918  65382.000000  0    6711613.767   -432715.864   1484733.663
99
